[
    {
        "Altitude(m)": 612513.9593851686,
        "Argument of Periapsis(deg)": 0.0,
        "Eccentricity": 0.0,
        "Inclination(deg)": 60.0,
        "Latitude(deg)": -28.136053128813007,
        "Longitude(deg)": -67.0868669937138,
        "Mean Anomaly(deg)": -147.27269999999996,
        "RAAN(deg)": 195.00000000000003,
        "Satellite Name": "Test1 871",
        "Satellite Number": 871,
        "Semi-Major Axis(m)": 6980739.136638005,
        "Time(s)": 0
    },
    {
        "Altitude(m)": 612708.3276199078,
        "Argument of Periapsis(deg)": 0.00010418945913296404,
        "Eccentricity": 0.0,
        "Inclination(deg)": 60.0,
        "Latitude(deg)": -28.647792064646378,
        "Longitude(deg)": -66.7296359233122,
        "Mean Anomaly(deg)": -146.65259385453817,
        "RAAN(deg)": 194.99957995086024,
        "Satellite Name": "Test1 871",
        "Satellite Number": 871,
        "Semi-Major Axis(m)": 6980739.136638005,
        "Time(s)": 10
    },
    {
        "Altitude(m)": 612903.5225138016,
        "Argument of Periapsis(deg)": 0.0002083789182659281,
        "Eccentricity": 0.0,
        "Inclination(deg)": 60.0,
        "Latitude(deg)": -29.15829084318435,
        "Longitude(deg)": -66.36853760603849,
        "Mean Anomaly(deg)": -146.03248770907635,
        "RAAN(deg)": 194.99915990172053,
        "Satellite Name": "Test1 871",
        "Satellite Number": 871,
        "Semi-Major Axis(m)": 6980739.136638005,
        "Time(s)": 20
    },
    {
        "Altitude(m)": 613099.4728566498,
        "Argument of Periapsis(deg)": 0.00031256837739889213,
        "Eccentricity": 0.0,
        "Inclination(deg)": 60.0,
        "Latitude(deg)": -29.66751239533285,
        "Longitude(deg)": -66.00346057071938,
        "Mean Anomaly(deg)": -145.41238156361453,
        "RAAN(deg)": 194.99873985258077,
        "Satellite Name": "Test1 871",
        "Satellite Number": 871,
        "Semi-Major Axis(m)": 6980739.136638005,
        "Time(s)": 30
    },
    {
        "Altitude(m)": 613296.106956409,
        "Argument of Periapsis(deg)": 0.0004167578365318562,
        "Eccentricity": 0.0,
        "Inclination(deg)": 60.0,
        "Latitude(deg)": -30.175418661226736,
        "Longitude(deg)": -65.63429035873223,
        "Mean Anomaly(deg)": -144.7922754181527,
        "RAAN(deg)": 194.99831980344103,
        "Satellite Name": "Test1 871",
        "Satellite Number": 871,
        "Semi-Major Axis(m)": 6980739.136638005,
        "Time(s)": 40
    },
    {
        "Altitude(m)": 613493.3526708914,
        "Argument of Periapsis(deg)": 0.0005209472956648203,
        "Eccentricity": 0.0,
        "Inclination(deg)": 60.0,
        "Latitude(deg)": -30.681970551721264,
        "Longitude(deg)": -65.26091046631834,
        "Mean Anomaly(deg)": -144.17216927269087,
        "RAAN(deg)": 194.99789975430127,
        "Satellite Name": "Test1 871",
        "Satellite Number": 871,
        "Semi-Major Axis(m)": 6980739.136638005,
        "Time(s)": 50
    },
    {
        "Altitude(m)": 613691.1374396943,
        "Argument of Periapsis(deg)": 0.0006251367547977843,
        "Eccentricity": 0.0,
        "Inclination(deg)": 60.0,
        "Latitude(deg)": -31.187127908543665,
        "Longitude(deg)": -64.8832017739062,
        "Mean Anomaly(deg)": -143.55206312722902,
        "RAAN(deg)": 194.99747970516157,
        "Satellite Name": "Test1 871",
        "Satellite Number": 871,
        "Semi-Major Axis(m)": 6980739.136638005,
        "Time(s)": 60
    },
    {
        "Altitude(m)": 613889.3883162434,
        "Argument of Periapsis(deg)": 0.0007293262139307483,
        "Eccentricity": 0.0,
        "Inclination(deg)": 60.0,
        "Latitude(deg)": -31.690849463064573,
        "Longitude(deg)": -64.50104197548653,
        "Mean Anomaly(deg)": -142.93195698176717,
        "RAAN(deg)": 194.9970596560218,
        "Satellite Name": "Test1 871",
        "Satellite Number": 871,
        "Semi-Major Axis(m)": 6980739.136638005,
        "Time(s)": 70
    },
    {
        "Altitude(m)": 614088.0320000616,
        "Argument of Periapsis(deg)": 0.0008335156730637124,
        "Eccentricity": 0.0,
        "Inclination(deg)": 60.0,
        "Latitude(deg)": -32.19309279365244,
        "Longitude(deg)": -64.11430652109937,
        "Mean Anomaly(deg)": -142.31185083630535,
        "RAAN(deg)": 194.99663960688207,
        "Satellite Name": "Test1 871",
        "Satellite Number": 871,
        "Semi-Major Axis(m)": 6980739.136638005,
        "Time(s)": 80
    },
    {
        "Altitude(m)": 614286.9948691349,
        "Argument of Periapsis(deg)": 0.0009377051321966765,
        "Eccentricity": 0.0,
        "Inclination(deg)": 60.0,
        "Latitude(deg)": -32.69381428157065,
        "Longitude(deg)": -63.722868046896025,
        "Mean Anomaly(deg)": -141.6917446908435,
        "RAAN(deg)": 194.9962195577423,
        "Satellite Name": "Test1 871",
        "Satellite Number": 871,
        "Semi-Major Axis(m)": 6980739.136638005,
        "Time(s)": 90
    },
    {
        "Altitude(m)": 614486.2030124437,
        "Argument of Periapsis(deg)": 0.0010418945913296407,
        "Eccentricity": 0.0,
        "Inclination(deg)": 60.0,
        "Latitude(deg)": -33.19296906538076,
        "Longitude(deg)": -63.32659580588461,
        "Mean Anomaly(deg)": -141.07163854538166,
        "RAAN(deg)": 194.9957995086026,
        "Satellite Name": "Test1 871",
        "Satellite Number": 871,
        "Semi-Major Axis(m)": 6980739.136638005,
        "Time(s)": 100
    },
    {
        "Altitude(m)": 614685.5822625967,
        "Argument of Periapsis(deg)": 0.0011460840504626045,
        "Eccentricity": 0.0,
        "Inclination(deg)": 60.0,
        "Latitude(deg)": -33.69051099381744,
        "Longitude(deg)": -62.92535661250061,
        "Mean Anomaly(deg)": -140.45153239991987,
        "RAAN(deg)": 194.99537945946284,
        "Satellite Name": "Test1 871",
        "Satellite Number": 871,
        "Semi-Major Axis(m)": 6980739.136638005,
        "Time(s)": 110
    },
    {
        "Altitude(m)": 614885.0582285336,
        "Argument of Periapsis(deg)": 0.0012502735095955685,
        "Eccentricity": 0.0,
        "Inclination(deg)": 60.0,
        "Latitude(deg)": -34.186392577099696,
        "Longitude(deg)": -62.51901427554463,
        "Mean Anomaly(deg)": -139.83142625445802,
        "RAAN(deg)": 194.9949594103231,
        "Satellite Name": "Test1 871",
        "Satellite Number": 871,
        "Semi-Major Axis(m)": 6980739.136638005,
        "Time(s)": 120
    },
    {
        "Altitude(m)": 615084.5563283878,
        "Argument of Periapsis(deg)": 0.0013544629687285324,
        "Eccentricity": 0.0,
        "Inclination(deg)": 60.0,
        "Latitude(deg)": -34.68056493664544,
        "Longitude(deg)": -62.10742903269328,
        "Mean Anomaly(deg)": -139.21132010899623,
        "RAAN(deg)": 194.99453936118334,
        "Satellite Name": "Test1 871",
        "Satellite Number": 871,
        "Semi-Major Axis(m)": 6980739.136638005,
        "Time(s)": 130
    },
    {
        "Altitude(m)": 615284.0018223189,
        "Argument of Periapsis(deg)": 0.0014586524278614966,
        "Eccentricity": 0.0,
        "Inclination(deg)": 60.0,
        "Latitude(deg)": -35.172977753163444,
        "Longitude(deg)": -61.69045849981858,
        "Mean Anomaly(deg)": -138.59121396353436,
        "RAAN(deg)": 194.99411931204364,
        "Satellite Name": "Test1 871",
        "Satellite Number": 871,
        "Semi-Major Axis(m)": 6980739.136638005,
        "Time(s)": 140
    },
    {
        "Altitude(m)": 615483.3198454871,
        "Argument of Periapsis(deg)": 0.0015628418869944607,
        "Eccentricity": 0.0,
        "Inclination(deg)": 60.0,
        "Latitude(deg)": -35.663579213092525,
        "Longitude(deg)": -61.267957109772375,
        "Mean Anomaly(deg)": -137.97110781807254,
        "RAAN(deg)": 194.99369926290387,
        "Satellite Name": "Test1 871",
        "Satellite Number": 871,
        "Semi-Major Axis(m)": 6980739.136638005,
        "Time(s)": 150
    },
    {
        "Altitude(m)": 615682.4354410039,
        "Argument of Periapsis(deg)": 0.0016670313461274247,
        "Eccentricity": 0.0,
        "Inclination(deg)": 60.0,
        "Latitude(deg)": -36.15231595336762,
        "Longitude(deg)": -60.839775553953295,
        "Mean Anomaly(deg)": -137.35100167261072,
        "RAAN(deg)": 194.99327921376414,
        "Satellite Name": "Test1 871",
        "Satellite Number": 871,
        "Semi-Major Axis(m)": 6980739.136638005,
        "Time(s)": 160
    },
    {
        "Altitude(m)": 615881.2735929328,
        "Argument of Periapsis(deg)": 0.0017712208052603888,
        "Eccentricity": 0.0,
        "Inclination(deg)": 60.0,
        "Latitude(deg)": -36.63913300449443,
        "Longitude(deg)": -60.40576174002539,
        "Mean Anomaly(deg)": -136.73089552714887,
        "RAAN(deg)": 194.99285916462438,
        "Satellite Name": "Test1 871",
        "Satellite Number": 871,
        "Semi-Major Axis(m)": 6980739.136638005,
        "Time(s)": 170
    },
    {
        "Altitude(m)": 616079.7592592959,
        "Argument of Periapsis(deg)": 0.001875410264393353,
        "Eccentricity": 0.0,
        "Inclination(deg)": 60.0,
        "Latitude(deg)": -37.123973731918255,
        "Longitude(deg)": -59.965760240577715,
        "Mean Anomaly(deg)": -136.11078938168703,
        "RAAN(deg)": 194.99243911548467,
        "Satellite Name": "Test1 871",
        "Satellite Number": 871,
        "Semi-Major Axis(m)": 6980739.136638005,
        "Time(s)": 180
    },
    {
        "Altitude(m)": 616277.8174050627,
        "Argument of Periapsis(deg)": 0.0019795997235263173,
        "Eccentricity": 0.0,
        "Inclination(deg)": 60.0,
        "Latitude(deg)": -37.60677977568012,
        "Longitude(deg)": -59.51961174619515,
        "Mean Anomaly(deg)": -135.49068323622518,
        "RAAN(deg)": 194.9920190663449,
        "Satellite Name": "Test1 871",
        "Satellite Number": 871,
        "Semi-Major Axis(m)": 6980739.136638005,
        "Time(s)": 190
    }
]